[{"OBJECT_NAME":"PUNCH-WFI 1 (SMEX 15B)","OBJECT_ID":"2025-047B","EPOCH":"2026-03-09T11:45:25.991424","MEAN_MOTION":14.74225366,"ECCENTRICITY":0.0009999,"INCLINATION":97.9576,"RA_OF_ASC_NODE":255.6057,"ARG_OF_PERICENTER":132.8335,"MEAN_ANOMALY":227.3715,"EPHEMERIS_TYPE":0,"CLASSIFICATION_TYPE":"U","NORAD_CAT_ID":63179,"ELEMENT_SET_NO":999,"REV_AT_EPOCH":5337,"BSTAR":0.00015602986,"MEAN_MOTION_DOT":9.82e-6,"MEAN_MOTION_DDOT":0},{"OBJECT_NAME":"SL-24 R\/B","OBJECT_ID":"2005-031C","EPOCH":"2026-03-09T21:58:22.545408","MEAN_MOTION":14.00823625,"ECCENTRICITY":0.04088783,"INCLINATION":97.7517,"RA_OF_ASC_NODE":97.814,"ARG_OF_PERICENTER":287.6404,"MEAN_ANOMALY":68.0517,"EPHEMERIS_TYPE":0,"CLASSIFICATION_TYPE":"U","NORAD_CAT_ID":28811,"ELEMENT_SET_NO":999,"REV_AT_EPOCH":4969,"BSTAR":6.1876883e-5,"MEAN_MOTION_DOT":1.45e-6,"MEAN_MOTION_DDOT":0}]
